{
  "links" : {
    "next" : "https://api.nasa.gov/neo/rest/v1/feed?start_date=2010-12-09&end_date=2010-12-09&detailed=true&api_key=t0TVs3DtDT2H8Oy2Zy8m2eVrNsAVKAexjcZXUckd",
    "prev" : "https://api.nasa.gov/neo/rest/v1/feed?start_date=2010-12-07&end_date=2010-12-07&detailed=true&api_key=t0TVs3DtDT2H8Oy2Zy8m2eVrNsAVKAexjcZXUckd",
    "self" : "https://api.nasa.gov/neo/rest/v1/feed?start_date=2010-12-08&end_date=2010-12-08&detailed=true&api_key=t0TVs3DtDT2H8Oy2Zy8m2eVrNsAVKAexjcZXUckd"
  },
  "element_count" : 7,
  "near_earth_objects" : {
    "2010-12-08" : [ {
      "links" : {
        "self" : "https://api.nasa.gov/neo/rest/v1/neo/3552688?api_key=t0TVs3DtDT2H8Oy2Zy8m2eVrNsAVKAexjcZXUckd"
      },
      "neo_reference_id" : "3552688",
      "name" : "(2010 XM)",
      "nasa_jpl_url" : "http://ssd.jpl.nasa.gov/sbdb.cgi?sstr=3552688",
      "absolute_magnitude_h" : 24.5,
      "estimated_diameter" : {
        "kilometers" : {
          "estimated_diameter_min" : 0.0334622374,
          "estimated_diameter_max" : 0.0748238376
        },
        "meters" : {
          "estimated_diameter_min" : 33.4622374455,
          "estimated_diameter_max" : 74.8238376074
        },
        "miles" : {
          "estimated_diameter_min" : 0.0207924639,
          "estimated_diameter_max" : 0.0464933628
        },
        "feet" : {
          "estimated_diameter_min" : 109.7842471007,
          "estimated_diameter_max" : 245.4850393757
        }
      },
      "is_potentially_hazardous_asteroid" : false,
      "close_approach_data" : [ {
        "close_approach_date" : "2010-12-08",
        "epoch_date_close_approach" : 1291795200000,
        "relative_velocity" : {
          "kilometers_per_second" : "3.0444424731",
          "kilometers_per_hour" : "10959.9929031312",
          "miles_per_hour" : "6810.1133680595"
        },
        "miss_distance" : {
          "astronomical" : "0.1937753783",
          "lunar" : "75.3786239624",
          "kilometers" : "28988386",
          "miles" : "18012548"
        },
        "orbiting_body" : "Earth"
      } ],
      "orbital_data" : {
        "orbit_id" : "9",
        "orbit_determination_date" : "2017-04-06 08:55:28",
        "orbit_uncertainty" : "9",
        "minimum_orbit_intersection" : ".193006",
        "jupiter_tisserand_invariant" : "3.767",
        "epoch_osculation" : "2455537.5",
        "eccentricity" : ".4020892178626062",
        "semi_major_axis" : "1.968762303701831",
        "inclination" : "3.83003001580727",
        "ascending_node_longitude" : "245.6104873971839",
        "orbital_period" : "1008.993468052242",
        "perihelion_distance" : "1.177144208848979",
        "perihelion_argument" : "193.9738071134863",
        "aphelion_distance" : "2.760380398554683",
        "perihelion_time" : "2455543.534693509142",
        "mean_anomaly" : "357.8468744029782",
        "mean_motion" : ".3567912096546501",
        "equinox" : "J2000"
      }
    }, {
      "links" : {
        "self" : "https://api.nasa.gov/neo/rest/v1/neo/3440317?api_key=t0TVs3DtDT2H8Oy2Zy8m2eVrNsAVKAexjcZXUckd"
      },
      "neo_reference_id" : "3440317",
      "name" : "(2008 WH60)",
      "nasa_jpl_url" : "http://ssd.jpl.nasa.gov/sbdb.cgi?sstr=3440317",
      "absolute_magnitude_h" : 20.9,
      "estimated_diameter" : {
        "kilometers" : {
          "estimated_diameter_min" : 0.1756123185,
          "estimated_diameter_max" : 0.3926810818
        },
        "meters" : {
          "estimated_diameter_min" : 175.6123184804,
          "estimated_diameter_max" : 392.6810818086
        },
        "miles" : {
          "estimated_diameter_min" : 0.1091204019,
          "estimated_diameter_max" : 0.2440006365
        },
        "feet" : {
          "estimated_diameter_min" : 576.1559189633,
          "estimated_diameter_max" : 1288.3238004408
        }
      },
      "is_potentially_hazardous_asteroid" : false,
      "close_approach_data" : [ {
        "close_approach_date" : "2010-12-08",
        "epoch_date_close_approach" : 1291795200000,
        "relative_velocity" : {
          "kilometers_per_second" : "6.9427996527",
          "kilometers_per_hour" : "24994.0787497173",
          "miles_per_hour" : "15530.348543123"
        },
        "miss_distance" : {
          "astronomical" : "0.2956638597",
          "lunar" : "115.0132446289",
          "kilometers" : "44230684",
          "miles" : "27483674"
        },
        "orbiting_body" : "Earth"
      } ],
      "orbital_data" : {
        "orbit_id" : "29",
        "orbit_determination_date" : "2017-04-06 09:02:05",
        "orbit_uncertainty" : "1",
        "minimum_orbit_intersection" : ".191751",
        "jupiter_tisserand_invariant" : "4.366",
        "epoch_osculation" : "2458000.5",
        "eccentricity" : ".2615458757646539",
        "semi_major_axis" : "1.559207551767115",
        "inclination" : "13.26621824961874",
        "ascending_node_longitude" : "257.5228129502244",
        "orbital_period" : "711.1387126199277",
        "perihelion_distance" : "1.151403247141323",
        "perihelion_argument" : "144.0985022757852",
        "aphelion_distance" : "1.967011856392907",
        "perihelion_time" : "2458332.606129661888",
        "mean_anomaly" : "191.8777974583725",
        "mean_motion" : ".5062303508604011",
        "equinox" : "J2000"
      }
    }, {
      "links" : {
        "self" : "https://api.nasa.gov/neo/rest/v1/neo/3449749?api_key=t0TVs3DtDT2H8Oy2Zy8m2eVrNsAVKAexjcZXUckd"
      },
      "neo_reference_id" : "3449749",
      "name" : "(2009 DO111)",
      "nasa_jpl_url" : "http://ssd.jpl.nasa.gov/sbdb.cgi?sstr=3449749",
      "absolute_magnitude_h" : 22.8,
      "estimated_diameter" : {
        "kilometers" : {
          "estimated_diameter_min" : 0.0732073989,
          "estimated_diameter_max" : 0.1636967205
        },
        "meters" : {
          "estimated_diameter_min" : 73.2073989347,
          "estimated_diameter_max" : 163.696720474
        },
        "miles" : {
          "estimated_diameter_min" : 0.0454889547,
          "estimated_diameter_max" : 0.1017163949
        },
        "feet" : {
          "estimated_diameter_min" : 240.181762721,
          "estimated_diameter_max" : 537.0627483999
        }
      },
      "is_potentially_hazardous_asteroid" : false,
      "close_approach_data" : [ {
        "close_approach_date" : "2010-12-08",
        "epoch_date_close_approach" : 1291795200000,
        "relative_velocity" : {
          "kilometers_per_second" : "8.1464929543",
          "kilometers_per_hour" : "29327.374635517",
          "miles_per_hour" : "18222.8900894967"
        },
        "miss_distance" : {
          "astronomical" : "0.3466526049",
          "lunar" : "134.8478546143",
          "kilometers" : "51858492",
          "miles" : "32223372"
        },
        "orbiting_body" : "Earth"
      } ],
      "orbital_data" : {
        "orbit_id" : "29",
        "orbit_determination_date" : "2017-04-06 09:01:09",
        "orbit_uncertainty" : "2",
        "minimum_orbit_intersection" : ".0022475",
        "jupiter_tisserand_invariant" : "5.818",
        "epoch_osculation" : "2458000.5",
        "eccentricity" : ".2802239956492996",
        "semi_major_axis" : "1.049625503186381",
        "inclination" : "2.982998673031775",
        "ascending_node_longitude" : "2.15676445308451",
        "orbital_period" : "392.7805631409789",
        "perihelion_distance" : ".7554952507480867",
        "perihelion_argument" : "273.0910359382864",
        "aphelion_distance" : "1.343755755624675",
        "perihelion_time" : "2458121.332314284866",
        "mean_anomaly" : "249.2520729776068",
        "mean_motion" : ".9165422981248358",
        "equinox" : "J2000"
      }
    } ]
  }
}